MEAN_MOTION;ECCENTRICITY;INCLINATION;RA_OF_ASC_NODE;ARG_OF_PERICENTER;MEAN_ANOMALY;BSTAR;MEAN_MOTION_DOT;MEAN_MOTION_DDOT;TYPE
12.62263421;1.93E-5;51.9732;70.8894;156.6459;228.045;1.7708E-5;-1.01E-6;0;Globalstar
12.62263408;1.8E-5;51.9732;69.3666;154.001;343.2789;1.5743E-5;-1.01E-6;0;Globalstar
12.62263416;1.67E-5;51.9733;67.9892;153.672;239.1944;2.3193E-5;-1.0E-6;0;Globalstar
12.62263413;1.64E-5;51.9734;66.2217;155.167;355.4853;7.4607E-6;-1.02E-6;0;Globalstar
12.62263402;1.39E-5;51.9736;63.0816;150.8393;6.0522;-1.5354E-5;-1.07E-6;0;Globalstar
12.62263425;1.19E-5;51.9738;60.191;146.9882;3.9832;-2.149E-5;-1.08E-6;0;Globalstar
12.62263409;9.8E-6;51.974;57.0507;135.7637;21.9048;-4.9155E-5;-1.13E-6;0;Globalstar
12.62263393;8.7E-6;51.9741;54.1613;124.9498;24.8511;-7.0679E-5;-1.16E-6;0;Globalstar
12.62263367;8.9E-6;51.9742;52.281;107.6056;328.4144;-9.0657E-5;-1.2E-6;0;Globalstar
12.62263371;9.2E-6;51.9742;51.2747;97.9489;39.9805;-7.2271E-5;-1.17E-6;0;Globalstar
12.62263346;9.7E-6;51.9744;49.1426;88.6733;351.2419;-9.4609E-5;-1.21E-6;0;Globalstar
12.62263317;1.03E-5;51.9746;45.7494;77.5576;26.4644;-8.0251E-5;-1.18E-6;0;Globalstar
12.62263325;1.08E-5;51.9746;44.9885;73.2703;86.4069;-7.1217E-5;-1.17E-6;0;Globalstar
12.62263324;1.24E-5;51.9748;42.1013;64.0609;84.5974;-4.4296E-5;-1.12E-6;0;Globalstar
12.62263312;1.31E-5;51.9749;40.7411;61.1969;317.5195;-3.7159E-5;-1.1E-6;0;Globalstar
12.62263337;1.35E-5;51.9753;39.2141;56.0221;82.5991;-5.1326E-5;-1.13E-6;0;Globalstar
12.62263301;1.54E-5;51.9754;36.5592;53.2549;87.6588;-6.0208E-5;-1.15E-6;0;Globalstar
12.62263311;1.57E-5;51.9754;36.3306;53.0989;68.9988;-5.4733E-5;-1.14E-6;0;Globalstar
12.62263295;1.79E-5;51.9755;33.4179;51.4163;97.9203;-5.4258E-5;-1.13E-6;0;Globalstar
12.62263279;2.06E-5;51.9756;30.3009;50.9823;70.4921;-4.7816E-5;-1.12E-6;0;Globalstar
12.62263283;2.31E-5;51.9757;27.1515;50.4845;91.4615;-3.1863E-5;-1.09E-6;0;Globalstar
12.62263289;2.43E-5;51.9758;24.0273;49.4887;75.2882;-1.8919E-5;-1.07E-6;0;Globalstar
12.62263279;2.56E-5;51.9759;22.1297;49.9647;27.0149;-2.1643E-5;-1.08E-6;0;Globalstar
12.6226326;2.7E-5;51.9759;20.8659;49.1193;114.0879;-2.6872E-5;-1.09E-6;0;Globalstar
12.62263268;2.77E-5;51.976;19.261;49.451;349.1135;-1.6547E-5;-1.07E-6;0;Globalstar
12.62263249;2.98E-5;51.976;16.0997;50.4347;26.2838;-1.754E-5;-1.07E-6;0;Globalstar
12.62263229;3.16E-5;51.9758;15.3267;52.1493;98.4512;-3.1707E-5;-1.09E-6;0;Globalstar
12.62263295;3.24E-5;51.976;12.4346;51.3607;95.7355;1.1832E-5;-1.02E-6;0;Globalstar
12.62263217;3.5E-5;51.9758;10.0695;53.2413;23.9317;-1.129E-5;-1.06E-6;0;Globalstar
12.62263273;3.47E-5;51.976;9.2964;51.8583;99.1569;3.3113E-7;-1.04E-6;0;Globalstar
12.62263287;3.61E-5;51.976;6.9333;52.478;25.4883;4.4481E-6;-1.03E-6;0;Globalstar
12.62263288;3.8E-5;51.9758;6.1512;53.5225;111.8077;6.0642E-5;-9.3E-7;0;Globalstar
12.62263281;3.8E-5;51.9758;5.919;52.7907;99.1761;5.1882E-5;-9.4E-7;0;Globalstar
12.6226325;3.98E-5;51.9758;4.0318;54.9002;33.6976;3.3104E-5;-9.8E-7;0;Globalstar
12.62263274;4.2E-5;51.9758;0.9031;56.366;21.9778;4.8228E-5;-9.5E-7;0;Globalstar
12.62263315;4.24E-5;51.9757;0.1494;55.7688;67.5281;8.2585E-5;-8.9E-7;0;Globalstar
12.6226332;4.36E-5;51.9757;358.0091;56.8176;20.9324;6.5929E-5;-9.2E-7;0;Globalstar
12.62263324;4.56E-5;51.9756;354.8729;58.2221;20.5042;4.7679E-5;-9.5E-7;0;Globalstar
12.62263345;4.62E-5;51.9756;354.0911;58.3272;107.3449;6.3727E-5;-9.2E-7;0;Globalstar
12.62263355;4.72E-5;51.9755;351.979;59.1342;18.7751;4.8644E-5;-9.5E-7;0;Globalstar
12.62263348;4.87E-5;51.9753;349.0803;59.5401;24.7975;2.5565E-5;-9.9E-7;0;Globalstar
12.62263355;4.91E-5;51.9753;348.827;59.3956;43.0188;3.3954E-5;-9.8E-7;0;Globalstar
12.62263392;5.08E-5;51.9752;345.9385;60.5217;32.9417;4.9164E-5;-9.5E-7;0;Globalstar
12.62263422;5.23E-5;51.975;342.8118;62.0362;17.8868;7.3864E-5;-9.1E-7;0;Globalstar
12.62263422;5.23E-5;51.9749;342.5566;62.3757;38.4293;7.9383E-5;-9.0E-7;0;Globalstar
12.62263446;5.36E-5;51.9748;339.6815;65.8036;5.8796;9.0894E-5;-8.7E-7;0;Globalstar
12.62263474;5.43E-5;51.9748;338.9098;66.0128;77.4307;0.00011179;-8.4E-7;0;Globalstar
12.62263481;5.55E-5;51.9747;336.526;67.3759;33.8127;0.00011638;-8.3E-7;0;Globalstar
12.62263589;5.61E-5;51.9746;334.6598;67.7244;298.6665;0.00018637;-7.0E-7;0;Globalstar
12.62263584;5.62E-5;51.9746;333.8742;68.5081;30.2877;0.00016578;-7.4E-7;0;Globalstar
12.62263565;5.79E-5;51.9745;330.4954;70.1674;31.2851;0.00013108;-8.0E-7;0;Globalstar
12.62263572;5.86E-5;51.9744;327.8574;70.1664;8.3222;0.00010105;-8.6E-7;0;Globalstar
12.62263611;5.94E-5;51.9743;324.4647;71.1371;30.8666;9.6825E-5;-8.6E-7;0;Globalstar
12.62263638;6.01E-5;51.9741;321.2961;72.2842;78.7892;7.0016E-5;-9.1E-7;0;Globalstar
12.62263679;6.03E-5;51.9741;320.8128;72.3672;79.9462;9.0677E-5;-8.8E-7;0;Globalstar
12.62263684;6.13E-5;51.974;318.1627;72.9459;74.7045;6.0915E-5;-9.3E-7;0;Globalstar
12.62263723;6.17E-5;51.9738;315.7964;73.9961;5.0822;5.9451E-5;-9.3E-7;0;Globalstar
12.62263725;6.19E-5;51.9738;315.2714;74.1062;68.5378;6.4943E-5;-9.2E-7;0;Globalstar
12.62263733;6.2E-5;51.9738;315.0224;73.5928;80.6112;7.3065E-5;-9.1E-7;0;Globalstar
12.62263728;6.23E-5;51.9736;312.4035;73.4413;29.1187;6.5712E-5;-9.2E-7;0;Globalstar
12.62263699;6.26E-5;51.9735;312.1297;73.5073;77.6958;4.2299E-5;-9.6E-7;0;Globalstar
12.62263715;6.26E-5;51.9735;311.8957;74.1688;66.2303;5.0219E-5;-9.5E-7;0;Globalstar
12.62263745;6.28E-5;51.9733;309.0162;76.726;40.9435;6.3811E-5;-9.2E-7;0;Globalstar
12.62263766;6.3E-5;51.9732;306.0945;78.1656;79.7102;8.5735E-5;-8.8E-7;0;Globalstar
12.62263757;6.29E-5;51.9732;305.6128;78.5776;78.1123;7.0722E-5;-9.1E-7;0;Globalstar
12.62263787;6.3E-5;51.9732;303.2461;79.8234;8.9976;0.000102;-8.5E-7;0;Globalstar
12.62263831;6.29E-5;51.9732;301.3635;80.2795;298.0438;0.00012724;-8.1E-7;0;Globalstar
12.62263835;6.34E-5;51.9731;300.0982;80.8651;25.6537;0.00013195;-8.0E-7;0;Globalstar
12.62263865;6.33E-5;51.9731;297.2153;82.9835;6.0153;0.00012253;-8.2E-7;0;Globalstar
12.62263873;6.34E-5;51.9731;296.9232;83.061;81.7837;0.00012553;-8.1E-7;0;Globalstar
12.62263887;6.31E-5;51.9732;294.0673;84.4343;22.6058;0.0001018;-8.6E-7;0;Globalstar
12.62263892;6.27E-5;51.9732;293.5515;85.4356;71.3385;7.8516E-5;-9.0E-7;0;Globalstar
12.62263811;6.05E-5;51.9736;291.6739;85.8144;353.397;-6.0593E-6;-1.05E-6;0;Globalstar
12.62263856;6.31E-5;51.9732;289.2543;85.3405;4.5872;1.5225E-5;-1.01E-6;0;Globalstar
12.62263852;6.33E-5;51.9732;288.2807;85.1781;17.8496;7.6935E-6;-1.02E-6;0;Globalstar
12.62263852;6.29E-5;51.9731;286.1553;86.3138;308.6275;-2.7383E-5;-1.09E-6;0;Globalstar
12.62263844;6.31E-5;51.9731;285.3737;86.4594;34.9311;-3.3279E-5;-1.1E-6;0;Globalstar
12.6226383;6.3E-5;51.9731;282.7507;87.0266;348.9779;-6.4878E-5;-1.15E-6;0;Globalstar
12.62263843;6.31E-5;51.9731;282.2495;86.99;17.0017;-4.6907E-5;-1.12E-6;0;Globalstar
12.62263873;6.27E-5;51.9731;279.6007;88.4387;8.6565;-3.837E-5;-1.11E-6;0;Globalstar
12.62263873;6.22E-5;51.9731;279.1226;89.2916;1.3346;-3.3504E-5;-1.1E-6;0;Globalstar
12.6226387;6.23E-5;51.9731;278.843;89.2803;58.7276;-3.5344E-5;-1.1E-6;0;Globalstar
12.62263857;6.14E-5;51.973;275.9748;91.0744;17.3591;-2.7014E-5;-1.09E-6;0;Globalstar
12.62263867;6.13E-5;51.973;275.7322;91.1289;19.367;-1.9156E-5;-1.07E-6;0;Globalstar
12.62263849;6.03E-5;51.973;272.8168;92.6076;48.8562;-7.8817E-6;-1.05E-6;0;Globalstar
12.62263869;5.67E-5;51.9735;269.6831;93.573;45.1636;-2.7748E-5;-1.09E-6;0;Globalstar
12.6226388;5.67E-5;51.9735;269.4281;93.611;65.597;-2.1587E-5;-1.08E-6;0;Globalstar
12.62263849;5.49E-5;51.9735;264.158;95.2536;9.3285;-4.4236E-5;-1.12E-6;0;Globalstar
12.6226385;5.43E-5;51.9735;260.762;95.7465;37.0983;-2.0971E-5;-1.08E-6;0;Globalstar
12.62263852;5.42E-5;51.9735;260.51;95.7434;53.1979;-1.9377E-5;-1.07E-6;0;Globalstar
12.62263842;5.38E-5;51.9735;258.3939;96.047;331.0595;-1.7814E-5;-1.07E-6;0;Globalstar
12.6226383;5.35E-5;51.9735;257.621;96.0753;44.4813;-2.3228E-5;-1.08E-6;0;Globalstar
12.62263868;5.41E-5;51.9732;255.4906;96.6267;343.0711;1.5814E-5;-1.01E-6;0;Globalstar
12.62263866;5.33E-5;51.9732;254.4792;96.9455;52.3021;-1.2756E-6;-1.04E-6;0;Globalstar
12.62263866;5.33E-5;51.9732;254.4792;96.9455;52.3021;-1.2756E-6;-1.04E-6;0;Globalstar
12.62263845;5.1E-5;51.9734;251.3365;97.3218;62.6089;3.6991E-6;-1.03E-6;0;Globalstar
12.62263845;5.1E-5;51.9734;251.3365;97.3218;62.6089;3.6991E-6;-1.03E-6;0;Globalstar
12.62263867;4.94E-5;51.9734;248.4489;98.3602;51.1376;1.6928E-5;-1.01E-6;0;Globalstar
12.62263815;5.02E-5;51.9731;246.5679;98.2407;338.5771;-9.4396E-5;-1.21E-6;0;Globalstar
12.6226386;4.86E-5;51.9734;245.5599;98.5179;42.7106;9.0054E-6;-1.02E-6;0;Globalstar
12.62263845;4.83E-5;51.973;242.9395;98.7779;353.3485;-4.1235E-5;-1.11E-6;0;Globalstar
12.62263846;4.78E-5;51.973;242.4185;98.8072;51.0063;-3.7316E-5;-1.1E-6;0;Globalstar
12.62263847;4.7E-5;51.9729;239.5295;98.8627;42.6594;7.4041E-6;-1.02E-6;0;Globalstar
12.62263852;4.51E-5;51.9728;236.3881;99.6588;50.399;5.3924E-5;-9.4E-7;0;Globalstar
12.62263893;4.25E-5;51.9733;233.4992;99.9232;41.9372;1.1575E-5;-1.02E-6;0;Globalstar
12.62263885;4.14E-5;51.9732;231.1146;100.3269;0.4419;9.4312E-6;-1.02E-6;0;Globalstar
12.62263879;4.2E-5;51.9727;230.3577;99.5742;50.766;0.00012724;-8.1E-7;0;Globalstar
12.6226391;4.05E-5;51.9727;227.4686;99.3648;42.8219;0.00013545;-7.9E-7;0;Globalstar
12.62263919;3.85E-5;51.973;225.1033;99.8788;332.5848;3.4885E-5;-9.8E-7;0;Globalstar
12.62263918;3.94E-5;51.9726;224.5868;99.2468;24.0968;0.0001147;-8.3E-7;0;Globalstar
12.62263933;3.84E-5;51.9725;223.2191;99.2612;265.275;0.00010467;-8.5E-7;0;Globalstar
12.62263946;3.82E-5;51.9725;221.4382;98.8543;43.6312;7.97E-5;-8.9E-7;0;Globalstar
12.62263958;3.73E-5;51.9724;220.0748;98.7411;278.5689;6.4744E-5;-9.2E-7;0;Globalstar
12.62263968;3.7E-5;51.9723;218.2959;97.9474;54.5145;3.8687E-5;-9.7E-7;0;Globalstar
12.62263975;3.59E-5;51.9722;216.1798;97.6714;332.9885;1.468E-5;-1.01E-6;0;Globalstar
12.62263989;3.57E-5;51.9722;215.4079;96.9852;45.8299;1.6145E-5;-1.01E-6;0;Globalstar
12.62263976;3.47E-5;51.9721;213.0239;96.943;3.8394;-1.6121E-5;-1.07E-6;0;Globalstar
